OBJECT_NAME,OBJECT_ID,EPOCH,MEAN_MOTION,ECCENTRICITY,INCLINATION,RA_OF_ASC_NODE,ARG_OF_PERICENTER,MEAN_ANOMALY,EPHEMERIS_TYPE,CLASSIFICATION_TYPE,NORAD_CAT_ID,ELEMENT_SET_NO,REV_AT_EPOCH,BSTAR,MEAN_MOTION_DOT,MEAN_MOTION_DDOT
STARLINK-34868,2025-210AC,2026-06-11T12:09:02.758752,15.34396170,.0001321,53.1589,229.9727,75.9187,284.1963,0,U,65648,999,4211,.54148E-3,.1796E-3,0
STARLINK-35079,2025-210AD,2026-06-11T12:17:06.634176,15.30204275,.0001099,53.1596,231.4233,80.3237,279.7887,0,U,65649,999,4209,.9121E-3,.26755E-3,0
STARLINK-35328,2025-211A,2026-06-11T16:43:52.788000,15.05654082,.00027434,97.3717,205.8614,110.0646,250.0877,0,U,65652,999,4118,.10737745E-3,.1492E-4,0
STARLINK-34210,2025-211B,2026-06-11T16:35:56.340384,15.05653383,.00018319,97.3703,205.8709,91.5685,268.5752,0,U,65653,999,4118,.80952642E-3,.11643E-3,0
STARLINK-35227,2025-211C,2026-06-11T14:52:13.649952,15.05664002,.00023898,97.3723,205.8137,101.7196,258.4300,0,U,65654,999,4117,.1559683E-3,.2194E-4,0
STARLINK-35240,2025-211D,2026-06-11T16:39:53.309664,15.05658727,.00018367,97.3710,205.8658,123.8817,236.2585,0,U,65655,999,4118,.21724018E-3,.3079E-4,0
STARLINK-35344,2025-211E,2026-06-11T16:31:54.769440,15.05658880,.00014836,97.3706,205.8730,107.5637,252.5752,0,U,65656,999,4118,.24558476E-3,.3488E-4,0
STARLINK-34540,2025-211F,2026-06-11T16:23:56.376960,15.05672076,.0001918,97.3716,205.8813,156.5371,203.5945,0,U,65657,999,4118,.55139801E-3,.7912E-4,0
STARLINK-35282,2025-211G,2026-06-11T16:15:57.960288,15.05659566,.00013859,97.3716,205.8899,120.2480,239.8885,0,U,65658,999,4118,.24623817E-3,.3498E-4,0
STARLINK-35120,2025-211H,2026-06-11T16:19:56.985024,15.05659258,.00009867,97.3714,205.8832,141.9577,218.1720,0,U,65659,999,4118,.4778686E-3,.6846E-4,0
STARLINK-35246,2025-211J,2026-06-11T22:34:46.709760,15.05659660,.00014468,97.3710,206.1477,97.5857,262.5535,0,U,65660,999,4122,.31861112E-3,.4544E-4,0
STARLINK-35220,2025-211K,2026-06-11T22:30:47.536416,15.05656732,.00017339,97.3714,206.1491,112.8029,247.3382,0,U,65661,999,4122,.24296235E-3,.345E-4,0
STARLINK-35176,2025-211L,2026-06-11T19:15:24.232320,15.05664561,.000206,97.3714,206.0278,112.8270,247.3176,0,U,65662,999,4120,.20616248E-3,.2919E-4,0
STARLINK-35190,2025-211M,2026-06-11T16:00:01.899360,15.05642210,.00020879,97.3765,205.9080,99.0310,261.1154,0,U,65663,999,4118,.57539469E-4,.773E-5,0
STARLINK-35201,2025-211N,2026-06-11T20:43:08.160096,15.05657396,.00016001,97.3711,206.0987,112.6011,247.5386,0,U,65664,999,4121,.310079E-3,.442E-4,0
STARLINK-35115,2025-211P,2026-06-11T15:52:03.545760,15.05656939,.0001139,97.3740,205.9142,104.9797,255.1556,0,U,65665,999,4118,.44878963E-3,.6425E-4,0
STARLINK-35181,2025-211Q,2026-06-11T15:48:03.575808,15.05656288,.00014806,97.3726,205.9179,103.6034,256.5358,0,U,65666,999,4118,.1892644E-3,.2675E-4,0
STARLINK-35361,2025-211R,2026-06-11T15:44:06.471744,15.05642995,.00021767,97.3715,205.9212,107.2694,252.8772,0,U,65667,999,4118,.74157874E-3,.10656E-3,0
STARLINK-35351,2025-211S,2026-06-11T20:27:11.800224,15.05646337,.000182,97.3712,206.1125,92.5528,267.5908,0,U,65668,999,4121,-.1179472E-4,-.228E-5,0
STARLINK-35353,2025-211T,2026-06-11T17:11:47.985504,15.05660785,.00018768,97.3711,205.9905,102.2841,257.8597,0,U,65669,999,4119,.29493589E-3,.4202E-4,0
STARLINK-35359,2025-211U,2026-06-11T15:32:06.892800,15.05655945,.0002319,97.3719,205.9332,109.5352,250.6126,0,U,65670,999,4118,.1560039E-3,.2194E-4,0
STARLINK-35194,2025-211V,2026-06-11T16:59:50.286624,15.05661312,.00015954,97.3705,206.0019,125.4496,234.6881,0,U,65671,999,4119,.37754092E-3,.5396E-4,0
STARLINK-35198,2025-211W,2026-06-11T17:03:49.561056,15.05660863,.00021721,97.3723,206.0004,98.6678,261.4795,0,U,65672,999,4119,.27072126E-3,.3852E-4,0
STARLINK-35177,2025-211X,2026-06-11T16:51:52.092000,15.05656848,.00020075,97.3704,206.0104,95.0335,265.1121,0,U,65673,999,4119,.18936344E-3,.2676E-4,0
STARLINK-35254,2025-211Y,2026-06-11T16:47:52.859040,15.05655801,.0002137,97.3709,206.0155,93.4741,266.6731,0,U,65674,999,4119,.14097451E-3,.1977E-4,0
STARLINK-34749,2025-211Z,2026-06-11T16:55:51.400992,15.05661401,.00028277,97.3717,206.0051,85.2994,274.8557,0,U,65675,999,4119,.34375029E-3,.4907E-4,0
STARLINK-35189,2025-212A,2026-06-11T14:11:43.533312,15.30188899,.0001158,53.1581,269.2772,78.8969,281.2162,0,U,65676,999,4157,.97803E-3,.28709E-3,0
STARLINK-35222,2025-212B,2026-06-11T19:16:40.410336,15.30207296,.00011689,53.1592,268.4641,97.6739,262.4395,0,U,65677,999,4166,.99166163E-3,.29133E-3,0
STARLINK-35233,2025-212C,2026-06-11T13:47:34.300320,15.30200037,.0000524,53.1592,269.8842,58.5660,301.5392,0,U,65678,999,4162,.68891E-3,.201E-3,0
STARLINK-35205,2025-212D,2026-06-11T19:06:12.541536,15.34414288,.00010727,53.1591,268.4218,103.8030,256.3092,0,U,65679,999,4160,.11470503E-2,.38596E-3,0
