STARLINK-34868          
1 65648U 25210AC  26162.50628193  .00017960  00000+0  54148-3 0  9997
2 65648  53.1589 229.9727 0001321  75.9187 284.1963 15.34396170 42114
STARLINK-35079          
1 65649U 25210AD  26162.51188234  .00026755  00000+0  91210-3 0  9999
2 65649  53.1596 231.4233 0001099  80.3237 279.7887 15.30204275 42093
STARLINK-35328          
1 65652U 25211A   26162.69713875  .00001492  00000+0  10738-3 0  9995
2 65652  97.3717 205.8614 0002743 110.0646 250.0877 15.05654082 41189
STARLINK-34210          
1 65653U 25211B   26162.69162431  .00011643  00000+0  80953-3 0  9997
2 65653  97.3703 205.8709 0001831  91.5685 268.5752 15.05653383 41182
STARLINK-35227          
1 65654U 25211C   26162.61960243  .00002194  00000+0  15597-3 0  9990
2 65654  97.3723 205.8137 0002389 101.7196 258.4300 15.05664002 41176
STARLINK-35240          
1 65655U 25211D   26162.69436701  .00003079  00000+0  21724-3 0  9998
2 65655  97.3710 205.8658 0001836 123.8817 236.2585 15.05658727 41189
STARLINK-35344          
1 65656U 25211E   26162.68882835  .00003488  00000+0  24558-3 0  9993
2 65656  97.3706 205.8730 0001483 107.5637 252.5752 15.05658880 41180
STARLINK-34540          
1 65657U 25211F   26162.68329140  .00007912  00000+0  55140-3 0  9996
2 65657  97.3716 205.8813 0001918 156.5371 203.5945 15.05672076 41189
STARLINK-35282          
1 65658U 25211G   26162.67775417  .00003498  00000+0  24624-3 0  9996
2 65658  97.3716 205.8899 0001385 120.2480 239.8885 15.05659566 41185
STARLINK-35120          
1 65659U 25211H   26162.68052066  .00006846  00000+0  47787-3 0  9991
2 65659  97.3714 205.8832 0000986 141.9577 218.1720 15.05659258 41180
STARLINK-35246          
1 65660U 25211J   26162.94081840  .00004544  00000+0  31861-3 0  9993
2 65660  97.3710 206.1477 0001446  97.5857 262.5535 15.05659660 41225
STARLINK-35220          
1 65661U 25211K   26162.93805019  .00003450  00000+0  24296-3 0  9994
2 65661  97.3714 206.1491 0001733 112.8029 247.3382 15.05656732 41225
STARLINK-35176          
1 65662U 25211L   26162.80236380  .00002919  00000+0  20616-3 0  9991
2 65662  97.3714 206.0278 0002060 112.8270 247.3176 15.05664561 41208
STARLINK-35190          
1 65663U 25211M   26162.66668865  .00000773  00000+0  57539-4 0  9994
2 65663  97.3765 205.9080 0002087  99.0310 261.1154 15.05642210 41188
STARLINK-35201          
1 65664U 25211N   26162.86328889  .00004420  00000+0  31008-3 0  9991
2 65664  97.3711 206.0987 0001600 112.6011 247.5386 15.05657396 41218
STARLINK-35115          
1 65665U 25211P   26162.66115215  .00006425  00000+0  44879-3 0  9994
2 65665  97.3740 205.9142 0001139 104.9797 255.1556 15.05656939 41186
STARLINK-35181          
1 65666U 25211Q   26162.65837472  .00002675  00000+0  18926-3 0  9997
2 65666  97.3726 205.9179 0001480 103.6034 256.5358 15.05656288 41182
STARLINK-35361          
1 65667U 25211R   26162.65563046  .00010656  00000+0  74158-3 0  9998
2 65667  97.3715 205.9212 0002176 107.2694 252.8772 15.05642995 41183
STARLINK-35351          
1 65668U 25211S   26162.85221991 -.00000228  00000+0 -11795-4 0  9996
2 65668  97.3712 206.1125 0001820  92.5528 267.5908 15.05646337 41216
STARLINK-35353          
1 65669U 25211T   26162.71652761  .00004202  00000+0  29494-3 0  9993
2 65669  97.3711 205.9905 0001876 102.2841 257.8597 15.05660785 41193
STARLINK-35359          
1 65670U 25211U   26162.64730200  .00002194  00000+0  15600-3 0  9994
2 65670  97.3719 205.9332 0002319 109.5352 250.6126 15.05655945 41187
STARLINK-35194          
1 65671U 25211V   26162.70822091  .00005396  00000+0  37754-3 0  9993
2 65671  97.3705 206.0019 0001595 125.4496 234.6881 15.05661312 41194
STARLINK-35198          
1 65672U 25211W   26162.71099029  .00003852  00000+0  27072-3 0  9999
2 65672  97.3723 206.0004 0002172  98.6678 261.4795 15.05660863 41196
STARLINK-35177          
1 65673U 25211X   26162.70268625  .00002676  00000+0  18936-3 0  9991
2 65673  97.3704 206.0104 0002007  95.0335 265.1121 15.05656848 41197
STARLINK-35254          
1 65674U 25211Y   26162.69991735  .00001977  00000+0  14097-3 0  9992
2 65674  97.3709 206.0155 0002137  93.4741 266.6731 15.05655801 41197
STARLINK-34749          
1 65675U 25211Z   26162.70545603  .00004907  00000+0  34375-3 0  9991
2 65675  97.3717 206.0051 0002827  85.2994 274.8557 15.05661401 41197
STARLINK-35189          
1 65676U 25212A   26162.59147608  .00028709  00000+0  97803-3 0  9994
2 65676  53.1581 269.2772 0001158  78.8969 281.2162 15.30188899 41573
STARLINK-35222          
1 65677U 25212B   26162.80324549  .00029133  00000+0  99166-3 0  9996
2 65677  53.1592 268.4641 0001168  97.6739 262.4395 15.30207296 41669
STARLINK-35233          
1 65678U 25212C   26162.57470255  .00020100  00000+0  68891-3 0  9993
2 65678  53.1592 269.8842 0000524  58.5660 301.5392 15.30200037 41626
STARLINK-35205          
1 65679U 25212D   26162.79597849  .00038596  00000+0  11471-2 0  9996
2 65679  53.1591 268.4218 0001072 103.8030 256.3092 15.34414288 41603
